NORAD_CAT_ID,OBJECT_NAME,OBJECT_TYPE,EPOCH,MEAN_MOTION,ECCENTRICITY,INCLINATION,RA_OF_ASC_NODE,ARG_OF_PERICENTER,MEAN_ANOMALY,BSTAR,MEAN_MOTION_DOT,MEAN_MOTION_DDOT,TLE_LINE0,TLE_LINE1,TLE_LINE2,SEMIMAJOR_AXIS,PERIOD,APOGEE,PERIGEE,DECAYED
49160.0,STARLINK-3095,PAYLOAD,2022-12-14 10:16:07,14.98338979,0.0002642,70.0031,32.8389,254.5861,105.5006,0.00029455,3.424e-05,0.0,0 STARLINK-3095,1 49160U 21082AG  22348.42786360  .00003424  00000-0  29455-3 0  9999,2 49160  70.0031  32.8389 0002642 254.5861 105.5006 14.98338979 70107,6950.165,96.106,573.866,570.194,0.0
49160.0,STARLINK-3095,PAYLOAD,2022-12-14 13:28:23,14.9833577,0.0003067,70.001,32.4976,262.6476,97.4335,0.00029606,3.442e-05,0.0,0 STARLINK-3095,1 49160U 21082AG  22348.56138527  .00003442  00000-0  29606-3 0  9998,2 49160  70.0010  32.4976 0003067 262.6476  97.4335 14.98335770 70139,6950.175,96.107,574.172,569.908,0.0
49160.0,STARLINK-3095,PAYLOAD,2022-12-14 19:52:56,14.98331672,0.0003019,70.0015,31.8247,265.148,94.9334,0.00010609,1.173e-05,0.0,0 STARLINK-3095,1 49160U 21082AG  22348.82842616  .00001173  00000-0  10609-3 0  9990,2 49160  70.0015  31.8247 0003019 265.1480  94.9334 14.98331672 70169,6950.188,96.107,574.151,569.9540000000002,0.0
49160.0,STARLINK-3095,PAYLOAD,2022-12-15 10:18:08,14.98333149,0.0003138,70.0012,30.3092,268.2819,91.7981,0.00035238,4.114e-05,0.0,0 STARLINK-3095,1 49160U 21082AG  22349.42926648  .00004114  00000-0  35238-3 0  9998,2 49160  70.0012  30.3092 0003138 268.2819  91.7981 14.98333149 70265,6950.183000000001,96.107,574.229,569.867,0.0
49160.0,STARLINK-3095,PAYLOAD,2022-12-15 13:30:24,14.98339502,0.0002978,70.0016,29.9729,266.1329,93.9489,0.00026018,3.014e-05,0.0,0 STARLINK-3095,1 49160U 21082AG  22349.56278280  .00003014  00000-0  26018-3 0  9999,2 49160  70.0016  29.9729 0002978 266.1329  93.9489 14.98339502 70271,6950.1640000000025,96.106,574.0980000000002,569.9590000000002,0.0
49160.0,STARLINK-3095,PAYLOAD,2022-12-15 19:54:56,14.98343448,0.0002773,70.0019,29.3007,266.6319,93.4522,0.00037139,4.343e-05,0.0,0 STARLINK-3095,1 49160U 21082AG  22349.82982091  .00004343  00000-0  37139-3 0  9992,2 49160  70.0019  29.3007 0002773 266.6319  93.4522 14.98343448 70316,6950.151,96.106,573.944,570.089,0.0
49160.0,STARLINK-3095,PAYLOAD,2022-12-16 10:20:10,14.98312396,0.00027,70.0028,27.7876,259.236,100.8495,-0.00042772,-5.19e-05,0.0,0 STARLINK-3095,1 49160U 21082AG  22350.43067250 -.00005190  00000-0 -42772-3 0  9994,2 49160  70.0028  27.7876 0002700 259.2360 100.8495 14.98312396 70417,6950.246999999999,96.108,573.989,570.236,0.0
49160.0,STARLINK-3095,PAYLOAD,2022-12-16 11:56:17,14.98319848,0.0002869,70.0026,27.6192,259.9673,100.1162,-0.00023039,-2.84e-05,0.0,0 STARLINK-3095,1 49160U 21082AG  22350.49742961 -.00002840  00000-0 -23039-3 0  9993,2 49160  70.0026  27.6192 0002869 259.9673 100.1162 14.98319848 70418,6950.224,96.108,574.0830000000002,570.095,0.0
49160.0,STARLINK-3095,PAYLOAD,2022-12-16 13:32:25,14.98322754,0.0002947,70.0022,27.4503,262.079,98.0034,-0.00014943,-1.875e-05,0.0,0 STARLINK-3095,1 49160U 21082AG  22350.56418857 -.00001875  00000-0 -14943-3 0  9996,2 49160  70.0022  27.4503 0002947 262.0790  98.0034 14.98322754 70435,6950.215,96.107,574.129,570.0319999999998,0.0
49160.0,STARLINK-3095,PAYLOAD,2022-12-16 19:56:58,14.98324289,0.0002941,70.0021,26.7774,265.4127,94.6696,-5.0558e-05,-6.96e-06,0.0,0 STARLINK-3095,1 49160U 21082AG  22350.83122929 -.00000696  00000-0 -50558-4 0  9991,2 49160  70.0021  26.7774 0002941 265.4127  94.6696 14.98324289 70465,6950.2109999999975,96.107,574.12,570.031,0.0
49160.0,STARLINK-3095,PAYLOAD,2022-12-17 11:58:18,14.98330883,0.0002896,70.0025,25.094,262.2379,97.8451,0.00021296,2.449e-05,0.0,0 STARLINK-3095,1 49160U 21082AG  22351.49882932  .00002449  00000-0  21296-3 0  9993,2 49160  70.0025  25.0940 0002896 262.2379  97.8451 14.98330883 70561,6950.19,96.107,574.068,570.0419999999998,0.0
49160.0,STARLINK-3095,PAYLOAD,2022-12-17 15:10:34,14.98331658,0.0002998,70.0024,24.7571,261.7533,98.3286,0.0002975,3.459e-05,0.0,0 STARLINK-3095,1 49160U 21082AG  22351.63234941  .00003459  00000-0  29750-3 0  9995,2 49160  70.0024  24.7571 0002998 261.7533  98.3286 14.98331658 70591,6950.188,96.107,574.136,569.969,0.0
49160.0,STARLINK-3095,PAYLOAD,2022-12-17 19:58:59,14.98334318,0.0003009,70.0024,24.2522,261.3553,98.7266,0.00042309,4.959e-05,0.0,0 STARLINK-3095,1 49160U 21082AG  22351.83262919  .00004959  00000-0  42309-3 0  9994,2 49160  70.0024  24.2522 0003009 261.3553  98.7266 14.98334318 70615,6950.18,96.107,574.136,569.953,0.0
49160.0,STARLINK-3095,PAYLOAD,2022-12-18 12:00:20,14.98325984,0.0002799,70.0033,22.5693,259.1943,100.8901,0.00013966,1.574e-05,0.0,0 STARLINK-3095,1 49160U 21082AG  22352.50023326  .00001574  00000-0  13966-3 0  9993,2 49160  70.0033  22.5693 0002799 259.1943 100.8901 14.98325984 70719,6950.205,96.107,574.016,570.125,0.0
49160.0,STARLINK-3095,PAYLOAD,2022-12-18 20:01:00,14.98333563,0.0002881,70.0028,21.7275,262.2978,97.7854,0.00026145,3.028e-05,0.0,0 STARLINK-3095,1 49160U 21082AG  22352.83403087  .00003028  00000-0  26145-3 0  9994,2 49160  70.0028  21.7275 0002881 262.2978  97.7854 14.98333563 70763,6950.182,96.107,574.049,570.045,0.0
49160.0,STARLINK-3095,PAYLOAD,2022-12-19 02:25:32,14.98337274,0.0002989,70.0027,21.0542,262.4891,97.5928,0.00032558,3.795e-05,0.0,0 STARLINK-3095,1 49160U 21082AG  22353.10106922  .00003795  00000-0  32558-3 0  9999,2 49160  70.0027  21.0542 0002989 262.4891  97.5928 14.98337274 70816,6950.17,96.107,574.113,569.9580000000002,0.0
49160.0,STARLINK-3095,PAYLOAD,2022-12-19 08:50:04,14.98344091,0.0002984,70.0023,20.3811,261.8786,98.2035,0.00059093,6.967e-05,0.0,0 STARLINK-3095,1 49160U 21082AG  22353.36810653  .00006967  00000-0  59093-3 0  9997,2 49160  70.0023  20.3811 0002984 261.8786  98.2035 14.98344091 70849,6950.149,96.106,574.0880000000002,569.94,0.0
49160.0,STARLINK-3095,PAYLOAD,2022-12-19 13:38:28,14.98347864,0.0002992,70.0023,19.8761,263.0586,97.0233,0.00069032,8.157e-05,0.0,0 STARLINK-3095,1 49160U 21082AG  22353.56838485  .00008157  00000-0  69032-3 0  9999,2 49160  70.0023  19.8761 0002992 263.0586  97.0233 14.98347864 70878,6950.138000000001,96.106,574.082,569.923,0.0
49160.0,STARLINK-3095,PAYLOAD,2022-12-20 07:15:56,14.98350158,0.0002971,70.0022,18.0246,262.5957,97.4864,0.0004966,5.84e-05,0.0,0 STARLINK-3095,1 49160U 21082AG  22354.30273768  .00005840  00000-0  49660-3 0  9990,2 49160  70.0022  18.0246 0002971 262.5957  97.4864 14.98350158 70996,6950.130999999999,96.106,574.06,569.931,0.0
49160.0,STARLINK-3095,PAYLOAD,2022-12-20 12:04:20,14.9834325,0.0002999,70.0022,17.5196,263.022,97.0598,0.00017833,2.036e-05,0.0,0 STARLINK-3095,1 49160U 21082AG  22354.50301802  .00002036  00000-0  17833-3 0  9994,2 49160  70.0022  17.5196 0002999 263.0220  97.0598 14.98343250 71012,6950.151999999999,96.106,574.101,569.933,0.0
49160.0,STARLINK-3095,PAYLOAD,2022-12-21 00:53:25,14.98336867,0.000293,70.002,16.1731,262.6938,97.3888,-1.7416e-05,-3.01e-06,0.0,0 STARLINK-3095,1 49160U 21082AG  22355.03709722 -.00000301  00000-0 -17416-4 0  9999,2 49160  70.0020  16.1731 0002930 262.6938  97.3888 14.98336867 71107,6950.172,96.107,574.073,570.0,0.0
49160.0,STARLINK-3095,PAYLOAD,2022-12-21 12:06:21,14.98328915,0.0002985,70.0015,14.9948,261.6801,98.402,-8.4941e-05,-1.106e-05,0.0,0 STARLINK-3095,1 49160U 21082AG  22355.50442106 -.00001106  00000-0 -84941-4 0  9992,2 49160  70.0015  14.9948 0002985 261.6801  98.4020 14.98328915 71177,6950.196,96.107,574.136,569.987,0.0
49160.0,STARLINK-3095,PAYLOAD,2022-12-22 08:56:07,14.9832492,0.0003078,70.0,12.8057,263.2136,96.8673,-2.9458e-05,-4.44e-06,0.0,0 STARLINK-3095,1 49160U 21082AG  22356.37230845 -.00000444  00000-0 -29458-4 0  9999,2 49160  70.0000  12.8057 0003078 263.2136  96.8673 14.98324920 71293,6950.209,96.107,574.2130000000002,569.934,0.0
49160.0,STARLINK-3095,PAYLOAD,2022-12-22 12:08:23,14.98326396,0.0003049,70.0003,12.4692,263.8628,96.2184,-2.0287e-06,-1.17e-06,0.0,0 STARLINK-3095,1 49160U 21082AG  22356.50582760 -.00000117  00000-0 -20287-5 0  9999,2 49160  70.0003  12.4692 0003049 263.8628  96.2184 14.98326396 71321,6950.204000000002,96.107,574.188,569.95,0.0
49160.0,STARLINK-3095,PAYLOAD,2022-12-23 07:21:59,14.98332184,0.0003221,69.9998,10.449000000000002,263.5568,96.5224,0.00014031,1.582e-05,0.0,0 STARLINK-3095,1 49160U 21082AG  22357.30694260  .00001582  00000-0  14031-3 0  9990,2 49160  69.9998  10.4490 0003221 263.5568  96.5224 14.98332184 71440,6950.186,96.107,574.29,569.812,0.0
49160.0,STARLINK-3095,PAYLOAD,2022-12-23 10:34:15,14.98333456,0.0003142,70.0001,10.1125,262.1888,97.8914,0.00016228,1.844e-05,0.0,0 STARLINK-3095,1 49160U 21082AG  22357.44046165  .00001844  00000-0  16228-3 0  9991,2 49160  70.0001  10.1125 0003142 262.1888  97.8914 14.98333456 71456,6950.182,96.107,574.231,569.863,0.0
49160.0,STARLINK-3095,PAYLOAD,2022-12-23 18:34:56,14.98333015,0.0003253999999999,70.0,9.2708,263.2084,96.8705,0.00030773,3.581e-05,0.0,0 STARLINK-3095,1 49160U 21082AG  22357.77426076  .00003581  00000-0  30773-3 0  9991,2 49160  70.0000   9.2708 0003254 263.2084  96.8705 14.98333015 71509,6950.184,96.107,574.31,569.7869999999998,0.0
49160.0,STARLINK-3095,PAYLOAD,2022-12-24 07:24:00,14.98338217,0.0003264,70.0001,7.9241,263.1046,96.9741,0.0002768999999999,3.213e-05,0.0,0 STARLINK-3095,1 49160U 21082AG  22358.30833783  .00003213  00000-0  27690-3 0  9994,2 49160  70.0001   7.9241 0003264 263.1046  96.9741 14.98338217 71594,6950.167,96.106,574.3009999999998,569.764,0.0
49160.0,STARLINK-3095,PAYLOAD,2022-12-24 12:12:24,14.98334993,0.0003345,70.0011,7.4193,265.1017,94.976,0.00018103,2.068e-05,0.0,0 STARLINK-3095,1 49160U 21082AG  22358.50862103  .00002068  00000-0  18103-3 0  9990,2 49160  70.0011   7.4193 0003345 265.1017  94.9760 14.98334993 71615,6950.177,96.107,574.367,569.7180000000002,0.0
